ONEWEB-0707             
1 61612U 24188U   25032.58334491  .00091472  00000+0  21375+0 0  9997
2 61612  87.9396 136.0137 0001165  69.1888 145.2370 13.23523776 15786
ONEWEB-0708             
1 61613U 24188V   25031.74051779  .00000016  00000+0  78929-5 0  9997
2 61613  87.8872 136.1591 0001417  63.6458 296.4822 13.23222701 17611
